CCSDS_OMM_VERS = 2.0
CREATION_DATE  = 
ORIGINATOR     = 

OBJECT_NAME    = UNKNOWN
OBJECT_ID      = 
CENTER_NAME    = EARTH
REF_FRAME      = TEME
TIME_SYSTEM    = UTC
MEAN_ELEMENT_THEORY = SGP/SGP4

EPOCH          = 2026-02-19T08:07:15.155040
MEAN_MOTION    = 12.68543617
ECCENTRICITY   = .0055839
INCLINATION    = 101.9928
RA_OF_ASC_NODE = 235.3379
ARG_OF_PERICENTER = 118.8645
MEAN_ANOMALY   = 2.8612

EPHEMERIS_TYPE = 0
CLASSIFICATION_TYPE = U
NORAD_CAT_ID   = 87569
ELEMENT_SET_NO = 999
REV_AT_EPOCH   = 56716
BSTAR          = .71391E-4
MEAN_MOTION_DOT = -.34E-6
MEAN_MOTION_DDOT = 0

CCSDS_OMM_VERS = 2.0
CREATION_DATE  = 
ORIGINATOR     = 

OBJECT_NAME    = UNKNOWN
OBJECT_ID      = 
CENTER_NAME    = EARTH
REF_FRAME      = TEME
TIME_SYSTEM    = UTC
MEAN_ELEMENT_THEORY = SGP/SGP4

EPOCH          = 2026-01-28T16:22:52.704480
MEAN_MOTION    = 14.40092266
ECCENTRICITY   = .0019469
INCLINATION    = 74.0253
RA_OF_ASC_NODE = 16.0833
ARG_OF_PERICENTER = 38.0722
MEAN_ANOMALY   = 322.1804

EPHEMERIS_TYPE = 0
CLASSIFICATION_TYPE = U
NORAD_CAT_ID   = 87587
ELEMENT_SET_NO = 999
REV_AT_EPOCH   = 64056
BSTAR          = .15144E-3
MEAN_MOTION_DOT = .452E-5
MEAN_MOTION_DDOT = 0

CCSDS_OMM_VERS = 2.0
CREATION_DATE  = 
ORIGINATOR     = 

OBJECT_NAME    = UNKNOWN
OBJECT_ID      = 
CENTER_NAME    = EARTH
REF_FRAME      = TEME
TIME_SYSTEM    = UTC
MEAN_ELEMENT_THEORY = SGP/SGP4

EPOCH          = 2026-02-16T01:19:08.060160
MEAN_MOTION    = 14.10427501
ECCENTRICITY   = .0027537
INCLINATION    = 98.7788
RA_OF_ASC_NODE = 87.6658
ARG_OF_PERICENTER = 99.8538
MEAN_ANOMALY   = 290.7954

EPHEMERIS_TYPE = 0
CLASSIFICATION_TYPE = U
NORAD_CAT_ID   = 87590
ELEMENT_SET_NO = 999
REV_AT_EPOCH   = 16345
BSTAR          = .37848E-3
MEAN_MOTION_DOT = .632E-5
MEAN_MOTION_DDOT = 0

CCSDS_OMM_VERS = 2.0
CREATION_DATE  = 
ORIGINATOR     = 

OBJECT_NAME    = UNKNOWN
OBJECT_ID      = 
CENTER_NAME    = EARTH
REF_FRAME      = TEME
TIME_SYSTEM    = UTC
MEAN_ELEMENT_THEORY = SGP/SGP4

EPOCH          = 2026-02-17T07:29:30.990336
MEAN_MOTION    = 12.46935943
ECCENTRICITY   = .0624914
INCLINATION    = 66.0380
RA_OF_ASC_NODE = 17.6541
ARG_OF_PERICENTER = 110.2738
MEAN_ANOMALY   = 10.3424

EPHEMERIS_TYPE = 0
CLASSIFICATION_TYPE = U
NORAD_CAT_ID   = 87616
ELEMENT_SET_NO = 999
REV_AT_EPOCH   = 54453
BSTAR          = .32828E-2
MEAN_MOTION_DOT = .913E-5
MEAN_MOTION_DDOT = 0

CCSDS_OMM_VERS = 2.0
CREATION_DATE  = 
ORIGINATOR     = 

OBJECT_NAME    = UNKNOWN
OBJECT_ID      = 
CENTER_NAME    = EARTH
REF_FRAME      = TEME
TIME_SYSTEM    = UTC
MEAN_ELEMENT_THEORY = SGP/SGP4

EPOCH          = 2026-02-19T15:34:50.300256
MEAN_MOTION    = 14.70915842
ECCENTRICITY   = .0097943
INCLINATION    = 98.6882
RA_OF_ASC_NODE = 357.5365
ARG_OF_PERICENTER = 33.5394
MEAN_ANOMALY   = 327.1960

EPHEMERIS_TYPE = 0
CLASSIFICATION_TYPE = U
NORAD_CAT_ID   = 87624
ELEMENT_SET_NO = 999
REV_AT_EPOCH   = 59040
BSTAR          = .10897E-2
MEAN_MOTION_DOT = .7134E-4
MEAN_MOTION_DDOT = 0

CCSDS_OMM_VERS = 2.0
CREATION_DATE  = 
ORIGINATOR     = 

OBJECT_NAME    = UNKNOWN
OBJECT_ID      = 
CENTER_NAME    = EARTH
REF_FRAME      = TEME
TIME_SYSTEM    = UTC
MEAN_ELEMENT_THEORY = SGP/SGP4

EPOCH          = 2026-02-08T08:21:58.574304
MEAN_MOTION    = 14.63453892
ECCENTRICITY   = .0030195
INCLINATION    = 100.2708
RA_OF_ASC_NODE = 233.5291
ARG_OF_PERICENTER = 112.3966
MEAN_ANOMALY   = 248.0433

EPHEMERIS_TYPE = 0
CLASSIFICATION_TYPE = U
NORAD_CAT_ID   = 87650
ELEMENT_SET_NO = 999
REV_AT_EPOCH   = 8818
BSTAR          = .25279E-2
MEAN_MOTION_DOT = .13131E-3
MEAN_MOTION_DDOT = 0

CCSDS_OMM_VERS = 2.0
CREATION_DATE  = 
ORIGINATOR     = 

OBJECT_NAME    = UNKNOWN
OBJECT_ID      = 
CENTER_NAME    = EARTH
REF_FRAME      = TEME
TIME_SYSTEM    = UTC
MEAN_ELEMENT_THEORY = SGP/SGP4

EPOCH          = 2026-02-19T20:17:23.680608
MEAN_MOTION    = 14.28205966
ECCENTRICITY   = .0057955
INCLINATION    = 70.8550
RA_OF_ASC_NODE = 217.3214
ARG_OF_PERICENTER = 169.5688
MEAN_ANOMALY   = 190.6659

EPHEMERIS_TYPE = 0
CLASSIFICATION_TYPE = U
NORAD_CAT_ID   = 87672
ELEMENT_SET_NO = 999
REV_AT_EPOCH   = 63432
BSTAR          = .81414E-3
MEAN_MOTION_DOT = .2016E-4
MEAN_MOTION_DDOT = 0

CCSDS_OMM_VERS = 2.0
CREATION_DATE  = 
ORIGINATOR     = 

OBJECT_NAME    = UNKNOWN
OBJECT_ID      = 
CENTER_NAME    = EARTH
REF_FRAME      = TEME
TIME_SYSTEM    = UTC
MEAN_ELEMENT_THEORY = SGP/SGP4

EPOCH          = 2026-02-20T01:53:25.234656
MEAN_MOTION    = 13.71286161
ECCENTRICITY   = .0149518
INCLINATION    = 66.7374
RA_OF_ASC_NODE = 294.4219
ARG_OF_PERICENTER = 114.9857
MEAN_ANOMALY   = 246.6825

EPHEMERIS_TYPE = 0
CLASSIFICATION_TYPE = U
NORAD_CAT_ID   = 87681
ELEMENT_SET_NO = 999
REV_AT_EPOCH   = 61134
BSTAR          = .10741E-2
MEAN_MOTION_DOT = .971E-5
MEAN_MOTION_DDOT = 0

CCSDS_OMM_VERS = 2.0
CREATION_DATE  = 
ORIGINATOR     = 

OBJECT_NAME    = UNKNOWN
OBJECT_ID      = 
CENTER_NAME    = EARTH
REF_FRAME      = TEME
TIME_SYSTEM    = UTC
MEAN_ELEMENT_THEORY = SGP/SGP4

EPOCH          = 2026-02-19T19:28:24.362112
MEAN_MOTION    = 14.01345864
ECCENTRICITY   = .058336
INCLINATION    = 65.7935
RA_OF_ASC_NODE = 174.2752
ARG_OF_PERICENTER = 11.9742
MEAN_ANOMALY   = 349.4534

EPHEMERIS_TYPE = 0
CLASSIFICATION_TYPE = U
NORAD_CAT_ID   = 87690
ELEMENT_SET_NO = 999
REV_AT_EPOCH   = 61705
BSTAR          = .42755E-3
MEAN_MOTION_DOT = .2884E-4
MEAN_MOTION_DDOT = 0

CCSDS_OMM_VERS = 2.0
CREATION_DATE  = 
ORIGINATOR     = 

OBJECT_NAME    = UNKNOWN
OBJECT_ID      = 
CENTER_NAME    = EARTH
REF_FRAME      = TEME
TIME_SYSTEM    = UTC
MEAN_ELEMENT_THEORY = SGP/SGP4

EPOCH          = 2026-02-20T12:02:57.747264
MEAN_MOTION    = 14.65187116
ECCENTRICITY   = .0104405
INCLINATION    = 98.6750
RA_OF_ASC_NODE = 243.8698
ARG_OF_PERICENTER = 51.6660
MEAN_ANOMALY   = 338.2899

EPHEMERIS_TYPE = 0
CLASSIFICATION_TYPE = U
NORAD_CAT_ID   = 87706
ELEMENT_SET_NO = 999
REV_AT_EPOCH   = 58873
BSTAR          = .42313E-3
MEAN_MOTION_DOT = .2408E-4
MEAN_MOTION_DDOT = 0

CCSDS_OMM_VERS = 2.0
CREATION_DATE  = 
ORIGINATOR     = 

OBJECT_NAME    = UNKNOWN
OBJECT_ID      = 
CENTER_NAME    = EARTH
REF_FRAME      = TEME
TIME_SYSTEM    = UTC
MEAN_ELEMENT_THEORY = SGP/SGP4

EPOCH          = 2026-02-20T03:04:37.552224
MEAN_MOTION    = 15.06536723
ECCENTRICITY   = .0014657
INCLINATION    = 82.8700
RA_OF_ASC_NODE = 192.1385
ARG_OF_PERICENTER = 224.5728
MEAN_ANOMALY   = 135.4323

EPHEMERIS_TYPE = 0
CLASSIFICATION_TYPE = U
NORAD_CAT_ID   = 87725
ELEMENT_SET_NO = 999
REV_AT_EPOCH   = 64433
BSTAR          = .49507E-2
MEAN_MOTION_DOT = .74048E-3
MEAN_MOTION_DDOT = 0

CCSDS_OMM_VERS = 2.0
CREATION_DATE  = 
ORIGINATOR     = 

OBJECT_NAME    = UNKNOWN
OBJECT_ID      = 
CENTER_NAME    = EARTH
REF_FRAME      = TEME
TIME_SYSTEM    = UTC
MEAN_ELEMENT_THEORY = SGP/SGP4

EPOCH          = 2026-02-20T02:35:37.351680
MEAN_MOTION    = 13.74518887
ECCENTRICITY   = .0030454
INCLINATION    = 82.9474
RA_OF_ASC_NODE = 182.7805
ARG_OF_PERICENTER = 168.2704
MEAN_ANOMALY   = 191.9168

EPHEMERIS_TYPE = 0
CLASSIFICATION_TYPE = U
NORAD_CAT_ID   = 87730
ELEMENT_SET_NO = 999
REV_AT_EPOCH   = 59486
BSTAR          = .80311E-4
MEAN_MOTION_DOT = .92E-6
MEAN_MOTION_DDOT = 0

