UNKNOWN                 
1 87569U          26050.33836985 -.00000034  00000+0  71391-4 0  9995
2 87569 101.9928 235.3379 0055839 118.8645   2.8612 12.68543617567169
UNKNOWN                 
1 87587U          26028.68255445  .00000452  00000+0  15144-3 0  9990
2 87587  74.0253  16.0833 0019469  38.0722 322.1804 14.40092266640565
UNKNOWN                 
1 87590U          26047.05495440  .00000632  00000+0  37848-3 0  9992
2 87590  98.7788  87.6658 0027537  99.8538 290.7954 14.10427501163454
UNKNOWN                 
1 87616U          26048.31216424  .00000913  00000+0  32828-2 0  9998
2 87616  66.0380  17.6541 0624914 110.2738  10.3424 12.46935943544536
UNKNOWN                 
1 87624U          26050.64919329  .00007134  00000+0  10897-2 0  9994
2 87624  98.6882 357.5365 0097943  33.5394 327.1960 14.70915842590400
UNKNOWN                 
1 87650U          26039.34859461  .00013131  00000+0  25279-2 0  9991
2 87650 100.2708 233.5291 0030195 112.3966 248.0433 14.63453892 88181
UNKNOWN                 
1 87672U          26050.84541297  .00002016  00000+0  81414-3 0  9992
2 87672  70.8550 217.3214 0057955 169.5688 190.6659 14.28205966634328
UNKNOWN                 
1 87681U          26051.07876429  .00000971  00000+0  10741-2 0  9998
2 87681  66.7374 294.4219 0149518 114.9857 246.6825 13.71286161611343
UNKNOWN                 
1 87690U          26050.81139308  .00002884  00000+0  42755-3 0  9993
2 87690  65.7935 174.2752 0583360  11.9742 349.4534 14.01345864617051
UNKNOWN                 
1 87706U          26051.50205726  .00002408  00000+0  42313-3 0  9998
2 87706  98.6750 243.8698 0104405  51.6660 338.2899 14.65187116588736
UNKNOWN                 
1 87725U          26051.12821241  .00074048  00000+0  49507-2 0  9993
2 87725  82.8700 192.1385 0014657 224.5728 135.4323 15.06536723644337
UNKNOWN                 
1 87730U          26051.10807120  .00000092  00000+0  80311-4 0  9995
2 87730  82.9474 182.7805 0030454 168.2704 191.9168 13.74518887594865
